[{"OBJECT_NAME":"CORVUS BC2","OBJECT_ID":"2017-042X","EPOCH":"2026-03-09T22:14:39.055488","MEAN_MOTION":15.05610206,"ECCENTRICITY":0.00145863,"INCLINATION":97.3955,"RA_OF_ASC_NODE":234.2405,"ARG_OF_PERICENTER":92.385,"MEAN_ANOMALY":267.9047,"EPHEMERIS_TYPE":0,"CLASSIFICATION_TYPE":"U","NORAD_CAT_ID":42846,"ELEMENT_SET_NO":999,"REV_AT_EPOCH":47212,"BSTAR":0.00034626467,"MEAN_MOTION_DOT":4.947e-5,"MEAN_MOTION_DDOT":0},{"OBJECT_NAME":"STARLINK-5519","OBJECT_ID":"2023-094F","EPOCH":"2026-03-09T06:30:00.034272","MEAN_MOTION":15.02538514,"ECCENTRICITY":0.00011708,"INCLINATION":43.0053,"RA_OF_ASC_NODE":32.8891,"ARG_OF_PERICENTER":155.2836,"MEAN_ANOMALY":204.8062,"EPHEMERIS_TYPE":0,"CLASSIFICATION_TYPE":"U","NORAD_CAT_ID":57223,"ELEMENT_SET_NO":999,"REV_AT_EPOCH":14705,"BSTAR":-0.00012475269,"MEAN_MOTION_DOT":-1.889e-5,"MEAN_MOTION_DDOT":0}]
